[{"OBJECT_NAME":"SL-8 R/B","OBJECT_ID":"1991-006B","EPOCH":"2026-03-20T23:28:47.903808","MEAN_MOTION":13.77495711,"ECCENTRICITY":0.00223791,"INCLINATION":82.9457,"RA_OF_ASC_NODE":161.6538,"ARG_OF_PERICENTER":7.3892,"MEAN_ANOMALY":166.1947,"EPHEMERIS_TYPE":0,"CLASSIFICATION_TYPE":"U","NORAD_CAT_ID":21088,"ELEMENT_SET_NO":999,"REV_AT_EPOCH":76562,"BSTAR":7.1779427e-5,"MEAN_MOTION_DOT":8.7e-7,"MEAN_MOTION_DDOT":0},{"OBJECT_NAME":"OKEAN-3","OBJECT_ID":"1991-039A","EPOCH":"2026-03-20T15:36:41.897952","MEAN_MOTION":15.04873391,"ECCENTRICITY":0.0012809,"INCLINATION":82.5186,"RA_OF_ASC_NODE":326.2261,"ARG_OF_PERICENTER":296.0526,"MEAN_ANOMALY":63.9382,"EPHEMERIS_TYPE":0,"CLASSIFICATION_TYPE":"U","NORAD_CAT_ID":21397,"ELEMENT_SET_NO":999,"REV_AT_EPOCH":86668,"BSTAR":0.0001474,"MEAN_MOTION_DOT":2.114e-5,"MEAN_MOTION_DDOT":0},{"OBJECT_NAME":"COSMOS 2151","OBJECT_ID":"1991-042A","EPOCH":"2026-03-20T22:56:46.808448","MEAN_MOTION":15.00149004,"ECCENTRICITY":0.00132117,"INCLINATION":82.4935,"RA_OF_ASC_NODE":72.8047,"ARG_OF_PERICENTER":28.9315,"MEAN_ANOMALY":331.2639,"EPHEMERIS_TYPE":0,"CLASSIFICATION_TYPE":"U","NORAD_CAT_ID":21422,"ELEMENT_SET_NO":999,"REV_AT_EPOCH":86488,"BSTAR":0.00012892581,"MEAN_MOTION_DOT":1.638e-5,"MEAN_MOTION_DDOT":0},{"OBJECT_NAME":"SL-14 R/B","OBJECT_ID":"1991-042B","EPOCH":"2026-03-20T18:20:45.012768","MEAN_MOTION":14.81840611,"ECCENTRICITY":0.00165218,"INCLINATION":82.4943,"RA_OF_ASC_NODE":209.7983,"ARG_OF_PERICENTER":200.1363,"MEAN_ANOMALY":159.9202,"EPHEMERIS_TYPE":0,"CLASSIFICATION_TYPE":"U","NORAD_CAT_ID":21423,"ELEMENT_SET_NO":999,"REV_AT_EPOCH":85471,"BSTAR":5.5609427e-5,"MEAN_MOTION_DOT":4.63e-6,"MEAN_MOTION_DDOT":0},{"OBJECT_NAME":"ERS-1","OBJECT_ID":"1991-050A","EPOCH":"2026-03-20T22:59:38.834304","MEAN_MOTION":14.3945725,"ECCENTRICITY":0.00322705,"INCLINATION":98.7874,"RA_OF_ASC_NODE":98.4757,"ARG_OF_PERICENTER":167.002,"MEAN_ANOMALY":193.2006,"EPHEMERIS_TYPE":0,"CLASSIFICATION_TYPE":"U","NORAD_CAT_ID":21574,"ELEMENT_SET_NO":999,"REV_AT_EPOCH":81735,"BSTAR":8.9681023e-5,"MEAN_MOTION_DOT":2.35e-6,"MEAN_MOTION_DDOT":0},{"OBJECT_NAME":"ARIANE 40 R/B","OBJECT_ID":"1991-050F","EPOCH":"2026-03-20T10:15:33.296544","MEAN_MOTION":14.42900784,"ECCENTRICITY":0.00039981,"INCLINATION":98.199,"RA_OF_ASC_NODE":131.2599,"ARG_OF_PERICENTER":57.6464,"MEAN_ANOMALY":302.5113,"EPHEMERIS_TYPE":0,"CLASSIFICATION_TYPE":"U","NORAD_CAT_ID":21610,"ELEMENT_SET_NO":999,"REV_AT_EPOCH":82054,"BSTAR":7.9555303e-5,"MEAN_MOTION_DOT":2.24e-6,"MEAN_MOTION_DDOT":0},{"OBJECT_NAME":"INTERCOSMOS 25","OBJECT_ID":"1991-086A","EPOCH":"2026-03-20T15:17:03.440832","MEAN_MOTION":12.120372,"ECCENTRICITY":0.1486803,"INCLINATION":82.6033,"RA_OF_ASC_NODE":303.3913,"ARG_OF_PERICENTER":93.3469,"MEAN_ANOMALY":283.8185,"EPHEMERIS_TYPE":0,"CLASSIFICATION_TYPE":"U","NORAD_CAT_ID":21819,"ELEMENT_SET_NO":999,"REV_AT_EPOCH":49801,"BSTAR":0.00029933,"MEAN_MOTION_DOT":1.565e-5,"MEAN_MOTION_DDOT":0},{"OBJECT_NAME":"SL-8 R/B","OBJECT_ID":"1992-008B","EPOCH":"2026-03-20T22:19:09.353568","MEAN_MOTION":13.75969578,"ECCENTRICITY":0.00358938,"INCLINATION":82.9223,"RA_OF_ASC_NODE":259.4143,"ARG_OF_PERICENTER":102.9326,"MEAN_ANOMALY":6.4163,"EPHEMERIS_TYPE":0,"CLASSIFICATION_TYPE":"U","NORAD_CAT_ID":21876,"ELEMENT_SET_NO":999,"REV_AT_EPOCH":71096,"BSTAR":-1.7102766e-5,"MEAN_MOTION_DOT":-1.0e-8,"MEAN_MOTION_DDOT":0},{"OBJECT_NAME":"SL-8 R/B","OBJECT_ID":"1992-020B","EPOCH":"2026-03-20T22:00:12.141216","MEAN_MOTION":13.75550209,"ECCENTRICITY":0.00275485,"INCLINATION":82.9319,"RA_OF_ASC_NODE":145.4265,"ARG_OF_PERICENTER":265.9518,"MEAN_ANOMALY":267.7477,"EPHEMERIS_TYPE":0,"CLASSIFICATION_TYPE":"U","NORAD_CAT_ID":21938,"ELEMENT_SET_NO":999,"REV_AT_EPOCH":70267,"BSTAR":3.3619846e-5,"MEAN_MOTION_DOT":4.7e-7,"MEAN_MOTION_DDOT":0},{"OBJECT_NAME":"USA 81","OBJECT_ID":"1992-023A","EPOCH":"2026-03-20T18:23:17.009376","MEAN_MOTION":14.32371384,"ECCENTRICITY":0.00021322,"INCLINATION":85.0063,"RA_OF_ASC_NODE":125.05,"ARG_OF_PERICENTER":70.0967,"MEAN_ANOMALY":290.0456,"EPHEMERIS_TYPE":0,"CLASSIFICATION_TYPE":"U","NORAD_CAT_ID":21949,"ELEMENT_SET_NO":999,"REV_AT_EPOCH":9637,"BSTAR":5.0736825e-5,"MEAN_MOTION_DOT":1.57e-6,"MEAN_MOTION_DDOT":0},{"OBJECT_NAME":"COSMOS 2219","OBJECT_ID":"1992-076A","EPOCH":"2026-03-20T21:50:08.204352","MEAN_MOTION":14.14093049,"ECCENTRICITY":0.00183266,"INCLINATION":71.0639,"RA_OF_ASC_NODE":354.6152,"ARG_OF_PERICENTER":191.1797,"MEAN_ANOMALY":168.8921,"EPHEMERIS_TYPE":0,"CLASSIFICATION_TYPE":"U","NORAD_CAT_ID":22219,"ELEMENT_SET_NO":999,"REV_AT_EPOCH":71996,"BSTAR":-5.19874e-5,"MEAN_MOTION_DOT":-1.46e-6,"MEAN_MOTION_DDOT":0},{"OBJECT_NAME":"SL-16 R/B","OBJECT_ID":"1992-076B","EPOCH":"2026-03-20T17:33:21.174048","MEAN_MOTION":14.16861417,"ECCENTRICITY":0.00106321,"INCLINATION":71.0007,"RA_OF_ASC_NODE":165.1164,"ARG_OF_PERICENTER":75.9206,"MEAN_ANOMALY":94.1441,"EPHEMERIS_TYPE":0,"CLASSIFICATION_TYPE":"U","NORAD_CAT_ID":22220,"ELEMENT_SET_NO":999,"REV_AT_EPOCH":72339,"BSTAR":0.00016756025,"MEAN_MOTION_DOT":2.88e-6,"MEAN_MOTION_DDOT":0},{"OBJECT_NAME":"COSMOS 2221","OBJECT_ID":"1992-080A","EPOCH":"2026-03-20T22:32:56.926464","MEAN_MOTION":14.96243253,"ECCENTRICITY":0.00149968,"INCLINATION":82.5001,"RA_OF_ASC_NODE":268.3018,"ARG_OF_PERICENTER":150.0685,"MEAN_ANOMALY":210.1398,"EPHEMERIS_TYPE":0,"CLASSIFICATION_TYPE":"U","NORAD_CAT_ID":22236,"ELEMENT_SET_NO":999,"REV_AT_EPOCH":78247,"BSTAR":0.00015447547,"MEAN_MOTION_DOT":1.772e-5,"MEAN_MOTION_DDOT":0},{"OBJECT_NAME":"SL-16 R/B","OBJECT_ID":"1992-093B","EPOCH":"2026-03-20T23:25:31.631520","MEAN_MOTION":14.15449196,"ECCENTRICITY":0.00063093,"INCLINATION":71.0238,"RA_OF_ASC_NODE":340.575,"ARG_OF_PERICENTER":282.3028,"MEAN_ANOMALY":77.7388,"EPHEMERIS_TYPE":0,"CLASSIFICATION_TYPE":"U","NORAD_CAT_ID":22285,"ELEMENT_SET_NO":999,"REV_AT_EPOCH":71475,"BSTAR":0.00017184935,"MEAN_MOTION_DOT":2.88e-6,"MEAN_MOTION_DDOT":0},{"OBJECT_NAME":"COSMOS 2228","OBJECT_ID":"1992-094A","EPOCH":"2026-03-20T21:09:28.302912","MEAN_MOTION":14.9724447,"ECCENTRICITY":0.00165981,"INCLINATION":82.5171,"RA_OF_ASC_NODE":226.5936,"ARG_OF_PERICENTER":263.8601,"MEAN_ANOMALY":96.073,"EPHEMERIS_TYPE":0,"CLASSIFICATION_TYPE":"U","NORAD_CAT_ID":22286,"ELEMENT_SET_NO":999,"REV_AT_EPOCH":77773,"BSTAR":0.00018843358,"MEAN_MOTION_DOT":2.213e-5,"MEAN_MOTION_DDOT":0},{"OBJECT_NAME":"SL-16 R/B","OBJECT_ID":"1993-016B","EPOCH":"2026-03-20T09:09:20.228832","MEAN_MOTION":14.15307268,"ECCENTRICITY":0.00123268,"INCLINATION":71.0081,"RA_OF_ASC_NODE":192.7264,"ARG_OF_PERICENTER":300.183,"MEAN_ANOMALY":59.8071,"EPHEMERIS_TYPE":0,"CLASSIFICATION_TYPE":"U","NORAD_CAT_ID":22566,"ELEMENT_SET_NO":999,"REV_AT_EPOCH":70368,"BSTAR":-0.00011106362,"MEAN_MOTION_DOT":-2.64e-6,"MEAN_MOTION_DDOT":0},{"OBJECT_NAME":"COSMOS 2242","OBJECT_ID":"1993-024A","EPOCH":"2026-03-20T22:27:02.143872","MEAN_MOTION":14.96593082,"ECCENTRICITY":0.00149371,"INCLINATION":82.5153,"RA_OF_ASC_NODE":255.9566,"ARG_OF_PERICENTER":267.5411,"MEAN_ANOMALY":92.4101,"EPHEMERIS_TYPE":0,"CLASSIFICATION_TYPE":"U","NORAD_CAT_ID":22626,"ELEMENT_SET_NO":999,"REV_AT_EPOCH":78207,"BSTAR":0.00015050824,"MEAN_MOTION_DOT":1.742e-5,"MEAN_MOTION_DDOT":0}]
