SL-8 R/B                
1 21088U 91006B   26079.97833222  .00000087  00000+0  71779-4 0  9994
2 21088  82.9457 161.6538 0022379   7.3892 166.1947 13.77495711765623
OKEAN-3                 
1 21397U 91039A   26079.65048493  .00002114  00000+0  14740-3 0  9993
2 21397  82.5186 326.2261 0012809 296.0526  63.9382 15.04873391866682
COSMOS 2151             
1 21422U 91042A   26079.95609732  .00001638  00000+0  12893-3 0  9995
2 21422  82.4935  72.8047 0013211  28.9315 331.2639 15.00149004864883
SL-14 R/B               
1 21423U 91042B   26079.76440987  .00000463  00000+0  55609-4 0  9998
2 21423  82.4943 209.7983 0016521 200.1363 159.9202 14.81840611854719
ERS-1                   
1 21574U 91050A   26079.95808836  .00000235  00000+0  89681-4 0  9990
2 21574  98.7874  98.4757 0032270 167.0020 193.2006 14.39457250817359
ARIANE 40 R/B           
1 21610U 91050F   26079.42746871  .00000224  00000+0  79555-4 0  9990
2 21610  98.1990 131.2599 0003998  57.6464 302.5113 14.42900784820542
INTERCOSMOS 25          
1 21819U 91086A   26079.63684538  .00001565  00000+0  29933-3 0  9997
2 21819  82.6033 303.3913 1486803  93.3469 283.8185 12.12037200498016
SL-8 R/B                
1 21876U 92008B   26079.92996937 -.00000001  00000+0 -17103-4 0  9999
2 21876  82.9223 259.4143 0035893 102.9326   6.4163 13.75969578710964
SL-8 R/B                
1 21938U 92020B   26079.91680719  .00000047  00000+0  33620-4 0  9999
2 21938  82.9319 145.4265 0027548 265.9518 267.7477 13.75550209702675
USA 81                  
1 21949U 92023A   26079.76616909  .00000157  00000+0  50737-4 0  9997
2 21949  85.0063 125.0500 0002132  70.0967 290.0456 14.32371384 96376
COSMOS 2219             
1 22219U 92076A   26079.90981718 -.00000146  00000+0 -51987-4 0  9993
2 22219  71.0639 354.6152 0018326 191.1797 168.8921 14.14093049719967
SL-16 R/B               
1 22220U 92076B   26079.73149507  .00000288  00000+0  16756-3 0  9997
2 22220  71.0007 165.1164 0010632  75.9206  94.1441 14.16861417723396
COSMOS 2221             
1 22236U 92080A   26079.93954776  .00001772  00000+0  15448-3 0  9999
2 22236  82.5001 268.3018 0014996 150.0685 210.1398 14.96243253782476
SL-16 R/B               
1 22285U 92093B   26079.97606055  .00000288  00000+0  17185-3 0  9996
2 22285  71.0238 340.5750 0006309 282.3028  77.7388 14.15449196714757
COSMOS 2228             
1 22286U 92094A   26079.88157758  .00002213  00000+0  18843-3 0  9991
2 22286  82.5171 226.5936 0016598 263.8601  96.0730 14.97244470777732
SL-16 R/B               
1 22566U 93016B   26079.38148413 -.00000264  00000+0 -11106-3 0  9991
2 22566  71.0081 192.7264 0012326 300.1830  59.8071 14.15307268703681
COSMOS 2242             
1 22626U 93024A   26079.93544148  .00001742  00000+0  15051-3 0  9996
2 22626  82.5153 255.9566 0014937 267.5411  92.4101 14.96593082782070
